STARLINK-36973          
1 68078U 26042K   26080.63718571  .00156244  00000+0  77833-3 0  9999
2 68078  53.1573 134.8139 0001243  78.3079 281.8083 15.80944696  3979
STARLINK-37063          
1 68079U 26042L   26080.63793725  .00116551  00000+0  58471-3 0  9998
2 68079  53.1571 134.8188 0001274  78.2357 281.8809 15.80924508  3970
STARLINK-37051          
1 68080U 26042M   26080.95180201  .00335155  00000+0  16286-2 0  9994
2 68080  53.1574 133.2187 0001035  78.1026 282.0112 15.80979140  4023
STARLINK-37066          
1 68081U 26042N   26079.62502972 -.00610839  00000+0 -34155-2 0  9992
2 68081  53.1582 139.8790 0000953 109.9073 250.2053 15.80231891  3819
STARLINK-37054          
1 68082U 26042P   26080.95104662  .00308179  00000+0  15085-2 0  9995
2 68082  53.1573 133.2144 0000701 102.2070 257.9031 15.80892046  4024
STARLINK-37065          
1 68083U 26042Q   26080.91667824  .00006138  00000+0  44217-4 0  9997
2 68083  53.1583 133.4922 0001254  66.4580  45.7846 15.75222292  4013
STARLINK-37037          
1 68084U 26042R   26080.94955218  .00284756  00000+0  13939-2 0  9997
2 68084  53.1576 133.2038 0000915  56.6428 303.4682 15.80955785  4026
STARLINK-37068          
1 68085U 26042S   26080.94880143  .00288348  00000+0  14106-2 0  9990
2 68085  53.1575 133.1988 0000567  53.1010 307.0065 15.80958458  4026
STARLINK-37067          
1 68086U 26042T   26080.94805213  .00279404  00000+0  13686-2 0  9991
2 68086  53.1577 133.1937 0001730 121.1536 238.9657 15.80955681  4029
STARLINK-37062          
1 68087U 26042U   26080.94730107  .00412828  00000+0  19843-2 0  9991
2 68087  53.1576 133.1889 0001009  41.3325 318.7774 15.81008824  4029
STARLINK-37059          
1 68088U 26042V   26080.94654909  .00413477  00000+0  19956-2 0  9993
2 68088  53.1577 133.1839 0000557 140.9849 219.1214 15.80916758  4026
STARLINK-37004          
1 68089U 26042W   26080.94580670  .00373478  00000+0  18147-2 0  9994
2 68089  53.1576 133.1790 0000532  87.6027 272.5056 15.80876694  4021
