CCSDS_OMM_VERS = 2.0
CREATION_DATE  = 
ORIGINATOR     = 

OBJECT_NAME    = STARLINK-36973
OBJECT_ID      = 2026-042K
CENTER_NAME    = EARTH
REF_FRAME      = TEME
TIME_SYSTEM    = UTC
MEAN_ELEMENT_THEORY = SGP/SGP4

EPOCH          = 2026-03-21T15:17:32.845344
MEAN_MOTION    = 15.80944696
ECCENTRICITY   = .00012435
INCLINATION    = 53.1573
RA_OF_ASC_NODE = 134.8139
ARG_OF_PERICENTER = 78.3079
MEAN_ANOMALY   = 281.8083

EPHEMERIS_TYPE = 0
CLASSIFICATION_TYPE = U
NORAD_CAT_ID   = 68078
ELEMENT_SET_NO = 999
REV_AT_EPOCH   = 397
BSTAR          = .77832971E-3
MEAN_MOTION_DOT = .156244E-2
MEAN_MOTION_DDOT = 0

CCSDS_OMM_VERS = 2.0
CREATION_DATE  = 
ORIGINATOR     = 

OBJECT_NAME    = STARLINK-37063
OBJECT_ID      = 2026-042L
CENTER_NAME    = EARTH
REF_FRAME      = TEME
TIME_SYSTEM    = UTC
MEAN_ELEMENT_THEORY = SGP/SGP4

EPOCH          = 2026-03-21T15:18:37.778400
MEAN_MOTION    = 15.80924508
ECCENTRICITY   = .00012744
INCLINATION    = 53.1571
RA_OF_ASC_NODE = 134.8188
ARG_OF_PERICENTER = 78.2357
MEAN_ANOMALY   = 281.8809

EPHEMERIS_TYPE = 0
CLASSIFICATION_TYPE = U
NORAD_CAT_ID   = 68079
ELEMENT_SET_NO = 999
REV_AT_EPOCH   = 397
BSTAR          = .5847142E-3
MEAN_MOTION_DOT = .116551E-2
MEAN_MOTION_DDOT = 0

CCSDS_OMM_VERS = 2.0
CREATION_DATE  = 
ORIGINATOR     = 

OBJECT_NAME    = STARLINK-37051
OBJECT_ID      = 2026-042M
CENTER_NAME    = EARTH
REF_FRAME      = TEME
TIME_SYSTEM    = UTC
MEAN_ELEMENT_THEORY = SGP/SGP4

EPOCH          = 2026-03-21T22:50:35.693664
MEAN_MOTION    = 15.80979140
ECCENTRICITY   = .00010352
INCLINATION    = 53.1574
RA_OF_ASC_NODE = 133.2187
ARG_OF_PERICENTER = 78.1026
MEAN_ANOMALY   = 282.0112

EPHEMERIS_TYPE = 0
CLASSIFICATION_TYPE = U
NORAD_CAT_ID   = 68080
ELEMENT_SET_NO = 999
REV_AT_EPOCH   = 402
BSTAR          = .16285512E-2
MEAN_MOTION_DOT = .335155E-2
MEAN_MOTION_DDOT = 0

CCSDS_OMM_VERS = 2.0
CREATION_DATE  = 
ORIGINATOR     = 

OBJECT_NAME    = STARLINK-37066
OBJECT_ID      = 2026-042N
CENTER_NAME    = EARTH
REF_FRAME      = TEME
TIME_SYSTEM    = UTC
MEAN_ELEMENT_THEORY = SGP/SGP4

EPOCH          = 2026-03-20T15:00:02.567808
MEAN_MOTION    = 15.80231891
ECCENTRICITY   = .0000953
INCLINATION    = 53.1582
RA_OF_ASC_NODE = 139.8790
ARG_OF_PERICENTER = 109.9073
MEAN_ANOMALY   = 250.2053

EPHEMERIS_TYPE = 0
CLASSIFICATION_TYPE = U
NORAD_CAT_ID   = 68081
ELEMENT_SET_NO = 999
REV_AT_EPOCH   = 381
BSTAR          = -.34155E-2
MEAN_MOTION_DOT = -.610839E-2
MEAN_MOTION_DDOT = 0

CCSDS_OMM_VERS = 2.0
CREATION_DATE  = 
ORIGINATOR     = 

OBJECT_NAME    = STARLINK-37054
OBJECT_ID      = 2026-042P
CENTER_NAME    = EARTH
REF_FRAME      = TEME
TIME_SYSTEM    = UTC
MEAN_ELEMENT_THEORY = SGP/SGP4

EPOCH          = 2026-03-21T22:49:30.427968
MEAN_MOTION    = 15.80892046
ECCENTRICITY   = .00007014
INCLINATION    = 53.1573
RA_OF_ASC_NODE = 133.2144
ARG_OF_PERICENTER = 102.2070
MEAN_ANOMALY   = 257.9031

EPHEMERIS_TYPE = 0
CLASSIFICATION_TYPE = U
NORAD_CAT_ID   = 68082
ELEMENT_SET_NO = 999
REV_AT_EPOCH   = 402
BSTAR          = .15084894E-2
MEAN_MOTION_DOT = .308179E-2
MEAN_MOTION_DDOT = 0

CCSDS_OMM_VERS = 2.0
CREATION_DATE  = 
ORIGINATOR     = 

OBJECT_NAME    = STARLINK-37065
OBJECT_ID      = 2026-042Q
CENTER_NAME    = EARTH
REF_FRAME      = TEME
TIME_SYSTEM    = UTC
MEAN_ELEMENT_THEORY = SGP/SGP4

EPOCH          = 2026-03-21T22:00:00.999936
MEAN_MOTION    = 15.75222292
ECCENTRICITY   = .00012544
INCLINATION    = 53.1583
RA_OF_ASC_NODE = 133.4922
ARG_OF_PERICENTER = 66.4580
MEAN_ANOMALY   = 45.7846

EPHEMERIS_TYPE = 0
CLASSIFICATION_TYPE = U
NORAD_CAT_ID   = 68083
ELEMENT_SET_NO = 999
REV_AT_EPOCH   = 401
BSTAR          = .44217453E-4
MEAN_MOTION_DOT = .6138E-4
MEAN_MOTION_DDOT = 0

CCSDS_OMM_VERS = 2.0
CREATION_DATE  = 
ORIGINATOR     = 

OBJECT_NAME    = STARLINK-37037
OBJECT_ID      = 2026-042R
CENTER_NAME    = EARTH
REF_FRAME      = TEME
TIME_SYSTEM    = UTC
MEAN_ELEMENT_THEORY = SGP/SGP4

EPOCH          = 2026-03-21T22:47:21.308352
MEAN_MOTION    = 15.80955785
ECCENTRICITY   = .00009156
INCLINATION    = 53.1576
RA_OF_ASC_NODE = 133.2038
ARG_OF_PERICENTER = 56.6428
MEAN_ANOMALY   = 303.4682

EPHEMERIS_TYPE = 0
CLASSIFICATION_TYPE = U
NORAD_CAT_ID   = 68084
ELEMENT_SET_NO = 999
REV_AT_EPOCH   = 402
BSTAR          = .13938551E-2
MEAN_MOTION_DOT = .284756E-2
MEAN_MOTION_DDOT = 0

CCSDS_OMM_VERS = 2.0
CREATION_DATE  = 
ORIGINATOR     = 

OBJECT_NAME    = STARLINK-37068
OBJECT_ID      = 2026-042S
CENTER_NAME    = EARTH
REF_FRAME      = TEME
TIME_SYSTEM    = UTC
MEAN_ELEMENT_THEORY = SGP/SGP4

EPOCH          = 2026-03-21T22:46:16.443552
MEAN_MOTION    = 15.80958458
ECCENTRICITY   = .00005676
INCLINATION    = 53.1575
RA_OF_ASC_NODE = 133.1988
ARG_OF_PERICENTER = 53.1010
MEAN_ANOMALY   = 307.0065

EPHEMERIS_TYPE = 0
CLASSIFICATION_TYPE = U
NORAD_CAT_ID   = 68085
ELEMENT_SET_NO = 999
REV_AT_EPOCH   = 402
BSTAR          = .14105973E-2
MEAN_MOTION_DOT = .288348E-2
MEAN_MOTION_DDOT = 0

CCSDS_OMM_VERS = 2.0
CREATION_DATE  = 
ORIGINATOR     = 

OBJECT_NAME    = STARLINK-37067
OBJECT_ID      = 2026-042T
CENTER_NAME    = EARTH
REF_FRAME      = TEME
TIME_SYSTEM    = UTC
MEAN_ELEMENT_THEORY = SGP/SGP4

EPOCH          = 2026-03-21T22:45:11.704032
MEAN_MOTION    = 15.80955681
ECCENTRICITY   = .00017301
INCLINATION    = 53.1577
RA_OF_ASC_NODE = 133.1937
ARG_OF_PERICENTER = 121.1536
MEAN_ANOMALY   = 238.9657

EPHEMERIS_TYPE = 0
CLASSIFICATION_TYPE = U
NORAD_CAT_ID   = 68086
ELEMENT_SET_NO = 999
REV_AT_EPOCH   = 402
BSTAR          = .13686062E-2
MEAN_MOTION_DOT = .279404E-2
MEAN_MOTION_DDOT = 0

CCSDS_OMM_VERS = 2.0
CREATION_DATE  = 
ORIGINATOR     = 

OBJECT_NAME    = STARLINK-37062
OBJECT_ID      = 2026-042U
CENTER_NAME    = EARTH
REF_FRAME      = TEME
TIME_SYSTEM    = UTC
MEAN_ELEMENT_THEORY = SGP/SGP4

EPOCH          = 2026-03-21T22:44:06.812448
MEAN_MOTION    = 15.81008824
ECCENTRICITY   = .00010091
INCLINATION    = 53.1576
RA_OF_ASC_NODE = 133.1889
ARG_OF_PERICENTER = 41.3325
MEAN_ANOMALY   = 318.7774

EPHEMERIS_TYPE = 0
CLASSIFICATION_TYPE = U
NORAD_CAT_ID   = 68087
ELEMENT_SET_NO = 999
REV_AT_EPOCH   = 402
BSTAR          = .19842619E-2
MEAN_MOTION_DOT = .412828E-2
MEAN_MOTION_DDOT = 0

CCSDS_OMM_VERS = 2.0
CREATION_DATE  = 
ORIGINATOR     = 

OBJECT_NAME    = STARLINK-37059
OBJECT_ID      = 2026-042V
CENTER_NAME    = EARTH
REF_FRAME      = TEME
TIME_SYSTEM    = UTC
MEAN_ELEMENT_THEORY = SGP/SGP4

EPOCH          = 2026-03-21T22:43:01.841376
MEAN_MOTION    = 15.80916758
ECCENTRICITY   = .00005575
INCLINATION    = 53.1577
RA_OF_ASC_NODE = 133.1839
ARG_OF_PERICENTER = 140.9849
MEAN_ANOMALY   = 219.1214

EPHEMERIS_TYPE = 0
CLASSIFICATION_TYPE = U
NORAD_CAT_ID   = 68088
ELEMENT_SET_NO = 999
REV_AT_EPOCH   = 402
BSTAR          = .19955539E-2
MEAN_MOTION_DOT = .413477E-2
MEAN_MOTION_DDOT = 0

CCSDS_OMM_VERS = 2.0
CREATION_DATE  = 
ORIGINATOR     = 

OBJECT_NAME    = STARLINK-37004
OBJECT_ID      = 2026-042W
CENTER_NAME    = EARTH
REF_FRAME      = TEME
TIME_SYSTEM    = UTC
MEAN_ELEMENT_THEORY = SGP/SGP4

EPOCH          = 2026-03-21T22:41:57.698880
MEAN_MOTION    = 15.80876694
ECCENTRICITY   = .00005323
INCLINATION    = 53.1576
RA_OF_ASC_NODE = 133.1790
ARG_OF_PERICENTER = 87.6027
MEAN_ANOMALY   = 272.5056

EPHEMERIS_TYPE = 0
CLASSIFICATION_TYPE = U
NORAD_CAT_ID   = 68089
ELEMENT_SET_NO = 999
REV_AT_EPOCH   = 402
BSTAR          = .18146769E-2
MEAN_MOTION_DOT = .373478E-2
MEAN_MOTION_DDOT = 0

